NORAD_CAT_ID,OBJECT_NAME,OBJECT_TYPE,EPOCH,MEAN_MOTION,ECCENTRICITY,INCLINATION,RA_OF_ASC_NODE,ARG_OF_PERICENTER,MEAN_ANOMALY,BSTAR,MEAN_MOTION_DOT,MEAN_MOTION_DDOT,TLE_LINE0,TLE_LINE1,TLE_LINE2,SEMIMAJOR_AXIS,PERIOD,APOGEE,PERIGEE,DECAYED
54770.0,STARLINK-5448,PAYLOAD,2024-03-07 07:37:17,15.08839076,0.0001532,53.2163,77.0451,84.2492,275.8674,0.00029379,4.391e-05,0.0,0 STARLINK-5448,1 54770U 22175N   24067.31756415  .00004391  00000-0  29379-3 0  9991,2 54770  53.2163  77.0451 0001532  84.2492 275.8674 15.08839076 69561,6917.883,95.438,540.808,538.688,0.0
54770.0,STARLINK-5448,PAYLOAD,2024-03-08 01:06:32,15.08832636,0.0001325,53.2169,73.7737,89.6923,270.4221,-0.00014005,-2.516e-05,0.0,0 STARLINK-5448,1 54770U 22175N   24068.04620520 -.00002516  00000-0 -14005-3 0  9998,2 54770  53.2169  73.7737 0001325  89.6923 270.4221 15.08832636 67512,6917.903,95.438,540.685,538.851,0.0
54770.0,STARLINK-5448,PAYLOAD,2024-03-08 07:28:04,15.08840714,0.0001524,53.2166,72.587,97.0824,263.0341,-3.7926e-05,-8.92e-06,0.0,0 STARLINK-5448,1 54770U 22175N   24068.31116124 -.00000892  00000-0 -37926-4 0  9991,2 54770  53.2166  72.5870 0001524  97.0824 263.0341 15.08840714 67559,6917.878,95.438,540.797,538.689,0.0
54770.0,STARLINK-5448,PAYLOAD,2024-03-08 17:00:22,15.08848474,0.0001471,53.2177,70.8001,83.2844,276.8316,9.991e-05,1.303e-05,0.0,0 STARLINK-5448,1 54770U 22175N   24068.70859864  .00001303  00000-0  99910-4 0  9996,2 54770  53.2177  70.8001 0001471  83.2844 276.8316 15.08848474 69779,6917.854,95.437,540.737,538.702,0.0
54770.0,STARLINK-5448,PAYLOAD,2024-03-09 05:43:29,15.0883437,0.0001682,53.2193,68.4229,89.7613,270.3572,1.1926e-05,-9.8e-07,0.0,0 STARLINK-5448,1 54770U 22175N   24069.23853054 -.00000098  00000-0  11926-4 0  9992,2 54770  53.2193  68.4229 0001682  89.7613 270.3572 15.08834370 67693,6917.898,95.438,540.926,538.599,0.0
54770.0,STARLINK-5448,PAYLOAD,2024-03-09 08:54:15,15.0882815,0.0001522,53.2176,67.826,89.8545,270.2622,-5.9022e-05,-1.227e-05,0.0,0 STARLINK-5448,1 54770U 22175N   24069.37101638 -.00001227  00000-0 -59022-4 0  9996,2 54770  53.2176  67.8260 0001522  89.8545 270.2622 15.08828150 67717,6917.917,95.438,540.835,538.729,0.0
54770.0,STARLINK-5448,PAYLOAD,2024-03-09 16:51:11,15.08834239,0.0001413,53.2171,66.3391,88.3226,271.7928,-2.8484e-05,-7.41e-06,0.0,0 STARLINK-5448,1 54770U 22175N   24069.70221272 -.00000741  00000-0 -28484-4 0  9998,2 54770  53.2171  66.3391 0001413  88.3226 271.7928 15.08834239 69925,6917.898,95.438,540.74,538.785,0.0
54770.0,STARLINK-5448,PAYLOAD,2024-03-10 05:34:15,15.08842062,0.0001411,53.2173,63.96,89.5598,270.5556,0.00010334,1.357e-05,0.0,0 STARLINK-5448,1 54770U 22175N   24070.23212863  .00001357  00000-0  10334-3 0  9990,2 54770  53.2173  63.9600 0001411  89.5598 270.5556 15.08842062 67842,6917.874,95.437,540.715,538.763,0.0
54770.0,STARLINK-5448,PAYLOAD,2024-03-10 07:09:39,15.08841487,0.0001521,53.2166,63.6628,90.3258,269.7908,0.00013756,1.902e-05,0.0,0 STARLINK-5448,1 54770U 22175N   24070.29836809  .00001902  00000-0  13756-3 0  9995,2 54770  53.2166  63.6628 0001521  90.3258 269.7908 15.08841487 70010,6917.876,95.437,540.793,538.689,0.0
54770.0,STARLINK-5448,PAYLOAD,2024-03-10 16:41:57,15.08851831,0.0001508,53.2164,61.8779,89.4973,270.6192,0.00026803,3.982e-05,0.0,0 STARLINK-5448,1 54770U 22175N   24070.69580296  .00003982  00000-0  26803-3 0  9992,2 54770  53.2164  61.8779 0001508  89.4973 270.6192 15.08851831 67918,6917.844,95.437,540.752,538.666,0.0
54770.0,STARLINK-5448,PAYLOAD,2024-03-10 23:03:32,15.08786457,0.0001453,53.2154,60.6897,114.0195,246.0949,-0.00072416,-0.00011777,0.0,0 STARLINK-5448,1 54770U 22175N   24070.96079197 -.00011777  00000-0 -72416-3 0  9999,2 54770  53.2154  60.6897 0001453 114.0195 246.0949 15.08786457 70119,6918.044,95.441,540.914,538.904,0.0
54770.0,STARLINK-5448,PAYLOAD,2024-03-11 05:25:04,15.08811531,0.0001134,53.2161,59.4999,103.665,256.4468,-0.00014591,-2.607e-05,0.0,0 STARLINK-5448,1 54770U 22175N   24071.22574973 -.00002607  00000-0 -14591-3 0  9993,2 54770  53.2161  59.4999 0001134 103.6650 256.4468 15.08811531 67997,6917.967,95.439,540.617,539.048,0.0
54770.0,STARLINK-5448,PAYLOAD,2024-03-11 16:32:46,15.08843361,0.0001654,53.2173,57.4177,93.9619,266.1562,0.00045322,6.933e-05,0.0,0 STARLINK-5448,1 54770U 22175N   24071.68942265  .00006933  00000-0  45322-3 0  9996,2 54770  53.2173  57.4177 0001654  93.9619 266.1562 15.08843361 68067,6917.87,95.437,540.879,538.591,0.0
54770.0,STARLINK-5448,PAYLOAD,2024-03-12 05:15:50,15.08868453,0.0001595,53.2167,55.0405,89.0429,271.0746,0.0012648,0.00019914,0.0,0 STARLINK-5448,1 54770U 22175N   24072.21933733  .00019914  00000-0  12648-2 0  9993,2 54770  53.2167  55.0405 0001595  89.0429 271.0746 15.08868453 68144,6917.793,95.436,540.762,538.555,0.0
54770.0,STARLINK-5448,PAYLOAD,2024-03-12 22:45:04,15.08863852,0.0002332,53.2173,51.7669,110.2642,249.8601,-5.6587e-05,-1.19e-05,0.0,0 STARLINK-5448,1 54770U 22175N   24072.94796427 -.00001190  00000-0 -56587-4 0  9991,2 54770  53.2173  51.7669 0002332 110.2642 249.8601 15.08863852 70414,6917.807,95.436,541.286,538.059,0.0
54770.0,STARLINK-5448,PAYLOAD,2024-03-13 05:06:36,15.088472,0.0001239,53.2173,50.5813,92.8902,267.2232,-0.0002894,-4.892e-05,0.0,0 STARLINK-5448,1 54770U 22175N   24073.21292435 -.00004892  00000-0 -28940-3 0  9995,2 54770  53.2173  50.5813 0001239  92.8902 267.2232 15.08847200 68297,6917.858,95.437,540.581,538.866,0.0
54770.0,STARLINK-5448,PAYLOAD,2024-03-13 08:17:23,15.0884233,0.0001557,53.2177,49.9864,115.2991,244.8163,0.00012636,1.724e-05,0.0,0 STARLINK-5448,1 54770U 22175N   24073.34540564  .00001724  00000-0  12636-3 0  9992,2 54770  53.2177  49.9864 0001557 115.2991 244.8163 15.08842330 70476,6917.873,95.437,540.815,538.661,0.0
54770.0,STARLINK-5448,PAYLOAD,2024-03-13 22:35:51,15.08845321,0.0001277,53.2172,47.3095,96.8662,263.2476,0.00068387,0.00010614,0.0,0 STARLINK-5448,1 54770U 22175N   24073.94156777  .00010614  00000-0  68387-3 0  9999,2 54770  53.2172  47.3095 0001277  96.8662 263.2476 15.08845321 70562,6917.864,95.437,540.613,538.846,0.0
54770.0,STARLINK-5448,PAYLOAD,2024-03-14 03:22:00,15.08847445,0.0001315,53.2179,46.4175,97.7323,262.3818,0.00041773,6.368e-05,0.0,0 STARLINK-5448,1 54770U 22175N   24074.14028622  .00006368  00000-0  41773-3 0  9990,2 54770  53.2179  46.4175 0001315  97.7323 262.3818 15.08847445 70597,6917.858,95.437,540.632,538.813,0.0
54770.0,STARLINK-5448,PAYLOAD,2024-03-14 22:26:38,15.08846166,0.0001262,53.2179,42.8498,97.414,262.6996,0.00025512,3.775e-05,0.0,0 STARLINK-5448,1 54770U 22175N   24074.93516599  .00003775  00000-0  25512-3 0  9994,2 54770  53.2179  42.8498 0001262  97.4140 262.6996 15.08846166 70713,6917.862,95.437,540.6,538.854,0.0
54770.0,STARLINK-5448,PAYLOAD,2024-03-15 03:12:48,15.08836081,0.0001266,53.2176,41.9557,98.1145,261.9991,-6.783e-06,-3.96e-06,0.0,0 STARLINK-5448,1 54770U 22175N   24075.13388896 -.00000396  00000-0 -67830-5 0  9993,2 54770  53.2176  41.9557 0001266  98.1145 261.9991 15.08836081 68587,6917.892,95.438,540.633,538.882,0.0
54770.0,STARLINK-5448,PAYLOAD,2024-03-15 07:58:57,15.08833672,0.0001171,53.2177,41.0643,96.3442,263.7683,8.506e-05,1.066e-05,0.0,0 STARLINK-5448,1 54770U 22175N   24075.33261092  .00001066  00000-0  85060-4 0  9990,2 54770  53.2177  41.0643 0001171  96.3442 263.7683 15.08833672 70775,6917.9,95.438,540.575,538.955,0.0
54770.0,STARLINK-5448,PAYLOAD,2024-03-16 03:03:36,15.0880145,0.0001488,53.2191,37.4987,113.5031,246.6118,-0.00051359,-8.444e-05,0.0,0 STARLINK-5448,1 54770U 22175N   24076.12750653 -.00008444  00000-0 -51359-3 0  9996,2 54770  53.2191  37.4987 0001488 113.5031 246.6118 15.08801450 68733,6917.998,95.44,540.893,538.834,0.0
54770.0,STARLINK-5448,PAYLOAD,2024-03-17 04:29:46,15.08843081,0.0001329,53.2187,32.7389,94.8953,265.2191,0.0003071,4.603e-05,0.0,0 STARLINK-5448,1 54770U 22175N   24077.18733997  .00004603  00000-0  30710-3 0  9994,2 54770  53.2187  32.7389 0001329  94.8953 265.2191 15.08843081 68891,6917.871,95.437,540.655,538.817,0.0
54770.0,STARLINK-5448,PAYLOAD,2024-03-17 06:05:09,15.08845416,0.0001314,53.2185,32.4399,96.5732,263.5409,0.00034121,5.147e-05,0.0,0 STARLINK-5448,1 54770U 22175N   24077.25357894  .00005147  00000-0  34121-3 0  9994,2 54770  53.2185  32.4399 0001314  96.5732 263.5409 15.08845416 71065,6917.864,95.437,540.638,538.82,0.0
54770.0,STARLINK-5448,PAYLOAD,2024-03-18 04:20:33,15.08835971,0.000153,53.2193,28.2768,65.2935,294.8216,0.0006281,9.721e-05,0.0,0 STARLINK-5448,1 54770U 22175N   24078.18094337  .00009721  00000-0  62810-3 0  9995,2 54770  53.2193  28.2768 0001530  65.2935 294.8216 15.08835971 69048,6917.893,95.438,540.816,538.699,0.0
54770.0,STARLINK-5448,PAYLOAD,2024-03-18 20:14:23,15.08865085,0.0001357,53.22,25.3032,90.2846,269.8302,0.00013427,1.851e-05,0.0,0 STARLINK-5448,1 54770U 22175N   24078.84332249  .00001851  00000-0  13427-3 0  9991,2 54770  53.2200  25.3032 0001357  90.2846 269.8302 15.08865085 69143,6917.804,95.436,540.607,538.73,0.0
54770.0,STARLINK-5448,PAYLOAD,2024-03-19 02:35:55,15.08858605,0.0001389,53.2207,24.1129,87.0765,273.0386,7.2063e-05,8.6e-06,0.0,0 STARLINK-5448,1 54770U 22175N   24079.10828532  .00000860  00000-0  72063-4 0  9997,2 54770  53.2207  24.1129 0001389  87.0765 273.0386 15.08858605 69186,6917.824,95.436,540.649,538.728,0.0
54770.0,STARLINK-5448,PAYLOAD,2024-03-20 00:51:19,15.08850812,0.000124,53.2205,19.9495,94.7916,265.3218,-2.8372e-05,-7.4e-06,0.0,0 STARLINK-5448,1 54770U 22175N   24080.03564548 -.00000740  00000-0 -28372-4 0  9998,2 54770  53.2205  19.9495 0001240  94.7916 265.3218 15.08850812 69327,6917.847,95.437,540.57,538.855,0.0
54770.0,STARLINK-5448,PAYLOAD,2024-03-20 05:37:28,15.08857073,0.0001419,53.2201,19.0594,118.7265,241.387,2.4064e-06,-2.5e-06,0.0,0 STARLINK-5448,1 54770U 22175N   24080.23435826 -.00000250  00000-0  24064-5 0  9996,2 54770  53.2201  19.0594 0001419 118.7265 241.3870 15.08857073 69353,6917.828,95.436,540.675,538.712,0.0
